NORAD_CAT_ID,OBJECT_NAME,OBJECT_TYPE,EPOCH,MEAN_MOTION,ECCENTRICITY,INCLINATION,RA_OF_ASC_NODE,ARG_OF_PERICENTER,MEAN_ANOMALY,BSTAR,MEAN_MOTION_DOT,MEAN_MOTION_DDOT,TLE_LINE0,TLE_LINE1,TLE_LINE2,SEMIMAJOR_AXIS,PERIOD,APOGEE,PERIGEE,DECAYED
52274.0,STARLINK-3790,PAYLOAD,2022-08-24 22:00:00,15.088552900000002,0.0002061,53.2178,152.5913,66.1552,200.433,-0.0015665999999999,-0.00025145,0.0,0 STARLINK-3790,1 52274U 22041P   22236.91667824 -.00025145  00000-0 -15666-2 0  9992,2 52274  53.2178 152.5913 0002061  66.1552 200.4330 15.08855290  1307,6917.834,95.437,541.124,538.273,0.0
52274.0,STARLINK-3790,PAYLOAD,2022-08-25 06:00:02,15.08827536,0.0002129,53.2174,151.0959,61.5319,216.7235,0.0021355,0.00033851,0.0,0 STARLINK-3790,1 52274U 22041P   22237.25002315  .00033851  00000-0  21355-2 0  9991,2 52274  53.2174 151.0959 0002129  61.5319 216.7235 15.08827536 20477,6917.918000000002,95.438,541.256,538.311,0.0
52274.0,STARLINK-3790,PAYLOAD,2022-08-25 14:00:01,15.08825311,0.0002029,53.2175,149.59799999999996,68.3587,221.4371,0.0023054,0.00036579,0.0,0 STARLINK-3790,1 52274U 22041P   22237.58334491  .00036579  00000-0  23054-2 0  9998,2 52274  53.2175 149.5980 0002029  68.3587 221.4371 15.08825311  1309,6917.925,95.438,541.194,538.387,0.0
52274.0,STARLINK-3790,PAYLOAD,2022-08-25 22:00:00,15.08865067,0.0002099,53.2176,148.1027,68.1642,233.2231,-0.001657,-0.00026581,0.0,0 STARLINK-3790,1 52274U 22041P   22237.91667824 -.00026581  00000-0 -16570-2 0  9993,2 52274  53.2176 148.1027 0002099  68.1642 233.2231 15.08865067 20572,6917.804,95.436,541.121,538.217,0.0
52274.0,STARLINK-3790,PAYLOAD,2022-08-26 14:00:01,15.08813286,0.0001986999999999,53.2171,145.1091,70.0033,254.6779,0.0018986,0.00030036,0.0,0 STARLINK-3790,1 52274U 22041P   22238.58335648  .00030036  00000-0  18986-2 0  9994,2 52274  53.2171 145.1091 0001987  70.0033 254.6779 15.08813286  1306,6917.962,95.439,541.202,538.452,0.0
52274.0,STARLINK-3790,PAYLOAD,2022-08-26 22:00:00,15.08846732,0.0002061,53.2172,143.614,68.3333,267.8588,-0.0016883,-0.00027063,0.0,0 STARLINK-3790,1 52274U 22041P   22238.91667824 -.00027063  00000-0 -16883-2 0  9997,2 52274  53.2172 143.6140 0002061  68.3333 267.8588 15.08846732 20725,6917.86,95.437,541.151,538.299,0.0
52274.0,STARLINK-3790,PAYLOAD,2022-08-27 14:00:01,15.08817154,0.0002025,53.2168,140.6203,70.9699,288.4166,0.0030703,0.00048885,0.0,0 STARLINK-3790,1 52274U 22041P   22239.58334491  .00048885  00000-0  30703-2 0  9992,2 52274  53.2168 140.6203 0002025  70.9699 288.4166 15.08817154  1301,6917.95,95.439,541.216,538.414,0.0
52274.0,STARLINK-3790,PAYLOAD,2022-08-27 22:00:00,15.08839893,0.0002048,53.2169,139.1251,67.83800000000001,303.1367,-0.0023203,-0.00037027,0.0,0 STARLINK-3790,1 52274U 22041P   22239.91667824 -.00037027  00000-0 -23203-2 0  9993,2 52274  53.2169 139.1251 0002048  67.8380 303.1367 15.08839893 20870,6917.880999999999,95.438,541.1619999999998,538.3290000000002,0.0
52274.0,STARLINK-3790,PAYLOAD,2022-08-28 14:00:01,15.08809575,0.0001974,53.2168,136.1312,70.3024,323.8466,0.0033419,0.00053256,0.0,0 STARLINK-3790,1 52274U 22041P   22240.58334491  .00053256  00000-0  33419-2 0  9999,2 52274  53.2168 136.1312 0001974  70.3024 323.8466 15.08809575 20980,6917.973000000001,95.439,541.2040000000002,538.4730000000002,0.0
52274.0,STARLINK-3790,PAYLOAD,2022-08-28 22:00:00,15.08852457,0.0002112999999999,53.2169,134.6361,67.5471,338.1789,-0.0015071,-0.00024202,0.0,0 STARLINK-3790,1 52274U 22041P   22240.91667824 -.00024202  00000-0 -15071-2 0  9990,2 52274  53.2169 134.6361 0002113  67.5471 338.1789 15.08852457  1307,6917.842,95.437,541.169,538.246,0.0
52274.0,STARLINK-3790,PAYLOAD,2022-08-29 06:00:02,15.08857859,0.0002086999999999,53.2167,133.14,63.1729,354.211,-0.002344,-0.00037419,0.0,0 STARLINK-3790,1 52274U 22041P   22241.25002315 -.00037419  00000-0 -23440-2 0  9999,2 52274  53.2167 133.1400 0002087  63.1729 354.2110 15.08857859 21086,6917.826,95.436,541.135,538.247,0.0
52274.0,STARLINK-3790,PAYLOAD,2022-08-29 14:00:01,15.08798621,0.0001939,53.2169,131.6419,69.8096,359.1236,0.0031065999999999,0.00049445,0.0,0 STARLINK-3790,1 52274U 22041P   22241.58334491  .00049445  00000-0  31066-2 0  9991,2 52274  53.2169 131.6419 0001939  69.8096 359.1236 15.08798621  1303,6918.007,95.44,541.2130000000002,538.53,0.0
52274.0,STARLINK-3790,PAYLOAD,2022-08-29 22:00:00,15.08841507,0.0002083,53.217,130.14700000000002,66.7835,13.7185,-0.0013562,-0.00021809,0.0,0 STARLINK-3790,1 52274U 22041P   22241.91667824 -.00021809  00000-0 -13562-2 0  9994,2 52274  53.2170 130.1470 0002083  66.7835  13.7185 15.08841507  1302,6917.876,95.437,541.182,538.3,0.0
52274.0,STARLINK-3790,PAYLOAD,2022-08-30 14:00:01,15.08832014,0.0001956999999999,53.2171,127.1527,70.7914,32.8954,0.0010811,0.00016956,0.0,0 STARLINK-3790,1 52274U 22041P   22242.58334491  .00016956  00000-0  10811-2 0  9998,2 52274  53.2171 127.1527 0001957  70.7914  32.8954 15.08832014 21282,6917.905,95.438,541.124,538.4159999999998,0.0
52274.0,STARLINK-3790,PAYLOAD,2022-08-30 22:00:00,15.08836826,0.0002008,53.217,125.6578,66.803,48.4789,-0.0016989999999999,-0.00027224,0.0,0 STARLINK-3790,1 52274U 22041P   22242.91667824 -.00027224  00000-0 -16990-2 0  9990,2 52274  53.2170 125.6578 0002008  66.8030  48.4789 15.08836826  1308,6917.89,95.438,541.144,538.366,0.0
52274.0,STARLINK-3790,PAYLOAD,2022-08-31 14:00:01,15.08815741,0.0001898,53.217,122.6634,72.2873,66.1632,0.0026811,0.00042612,0.0,0 STARLINK-3790,1 52274U 22041P   22243.58334491  .00042612  00000-0  26811-2 0  9994,2 52274  53.2170 122.6634 0001898  72.2873  66.1632 15.08815741  1307,6917.955,95.439,541.133,538.507,0.0
52274.0,STARLINK-3790,PAYLOAD,2022-08-31 22:00:00,15.0884773,0.0002,53.217,121.1686,68.1671,81.8709,-0.00092787,-0.00015028,0.0,0 STARLINK-3790,1 52274U 22041P   22243.91667824 -.00015028  00000-0 -92787-3 0  9999,2 52274  53.2170 121.1686 0002000  68.1671  81.8709 15.08847730  1306,6917.857,95.437,541.105,538.3380000000002,0.0
52274.0,STARLINK-3790,PAYLOAD,2022-09-01 06:00:00,15.08856042,0.0001978,53.2166,119.6719,67.0254,94.6042,-0.00098307,-0.00015907,0.0,0 STARLINK-3790,1 52274U 22041P   22244.25001157 -.00015907  00000-0 -98307-3 0  9998,2 52274  53.2166 119.6719 0001978  67.0254  94.6042 15.08856042 21533,6917.831,95.437,541.065,538.328,0.0
52274.0,STARLINK-3790,PAYLOAD,2022-09-01 14:00:01,15.08847029,0.0001859,53.2168,118.1741,74.7968,98.5066,0.00030975,4.646e-05,0.0,0 STARLINK-3790,1 52274U 22041P   22244.58335648  .00004646  00000-0  30975-3 0  9992,2 52274  53.2168 118.1741 0001859  74.7968  98.5066 15.08847029  1306,6917.859,95.437,541.01,538.438,0.0
52274.0,STARLINK-3790,PAYLOAD,2022-09-01 22:00:00,15.0883717,0.0001885999999999,53.2167,116.6794,68.8522,115.9958,-0.0012547,-0.000202,0.0,0 STARLINK-3790,1 52274U 22041P   22244.91667824 -.00020200  00000-0 -12547-2 0  9993,2 52274  53.2167 116.6794 0001886  68.8522 115.9958 15.08837170  1306,6917.889,95.438,541.059,538.4490000000002,0.0
52274.0,STARLINK-3790,PAYLOAD,2022-09-02 14:00:01,15.08822327,0.0001813,53.2166,113.6851,76.3114,131.7072,0.0019965,0.00031614,0.0,0 STARLINK-3790,1 52274U 22041P   22245.58334491  .00031614  00000-0  19965-2 0  9998,2 52274  53.2166 113.6851 0001813  76.3114 131.7072 15.08822327 21737,6917.934,95.439,541.054,538.545,0.0
52274.0,STARLINK-3790,PAYLOAD,2022-09-02 22:00:01,15.08838594,0.0001913,53.2165,112.1904,70.4689,149.2028,-0.00044309,-7.333e-05,0.0,0 STARLINK-3790,1 52274U 22041P   22245.91668981 -.00007333  00000-0 -44309-3 0  9993,2 52274  53.2165 112.1904 0001913  70.4689 149.2028 15.08838594  1301,6917.885,95.438,541.073,538.4259999999998,0.0
52274.0,STARLINK-3790,PAYLOAD,2022-09-03 06:00:00,15.08860009,0.0001859,53.2163,110.6936,70.5911,160.6069,-0.0017942999999999,-0.00028747,0.0,0 STARLINK-3790,1 52274U 22041P   22246.25001157 -.00028747  00000-0 -17943-2 0  9992,2 52274  53.2163 110.6936 0001859  70.5911 160.6069 15.08860009 21833,6917.819,95.436,540.97,538.398,0.0
52274.0,STARLINK-3790,PAYLOAD,2022-09-03 14:00:01,15.088390099999998,0.0001839,53.2164,109.196,77.538,165.2689,0.0020666,0.00032754,0.0,0 STARLINK-3790,1 52274U 22041P   22246.58334491  .00032754  00000-0  20666-2 0  9995,2 52274  53.2164 109.1960 0001839  77.5380 165.2689 15.08839010  1306,6917.8830000000025,95.438,541.021,538.476,0.0
52274.0,STARLINK-3790,PAYLOAD,2022-09-03 22:00:00,15.08864552,0.0001901,53.2165,107.7014,70.8726,183.5444,-0.0022081,-0.00035283,0.0,0 STARLINK-3790,1 52274U 22041P   22246.91667824 -.00035283  00000-0 -22081-2 0  9996,2 52274  53.2165 107.7014 0001901  70.8726 183.5444 15.08864552 21933,6917.805,95.436,540.985,538.355,0.0
52274.0,STARLINK-3790,PAYLOAD,2022-09-04 14:00:01,15.08846312,0.0001732,53.2167,104.7068,76.6382,201.0582,0.00095438,0.00014936,0.0,0 STARLINK-3790,1 52274U 22041P   22247.58335648  .00014936  00000-0  95438-3 0  9993,2 52274  53.2167 104.7068 0001732  76.6382 201.0582 15.08846312 22030,6917.861,95.437,540.924,538.528,0.0
52274.0,STARLINK-3790,PAYLOAD,2022-09-04 20:00:01,15.08857943,0.0001756,53.2167,103.5861,70.3586,125.9832,-0.0026595,-0.00042386,0.0,0 STARLINK-3790,1 52274U 22041P   22247.83334491 -.00042386  00000-0 -26595-2 0  9995,2 52274  53.2167 103.5861 0001756  70.3586 125.9832 15.08857943  1302,6917.826,95.436,540.905,538.476,0.0
52274.0,STARLINK-3790,PAYLOAD,2022-09-05 06:00:00,15.08864456,0.0001654,53.2169,101.7152,67.7788,233.0565,-0.0021390999999999,-0.00034194,0.0,0 STARLINK-3790,1 52274U 22041P   22248.25001157 -.00034194  00000-0 -21391-2 0  9999,2 52274  53.2169 101.7152 0001654  67.7788 233.0565 15.08864456 22133,6917.806,95.436,540.815,538.526,0.0
52274.0,STARLINK-3790,PAYLOAD,2022-09-05 14:00:01,15.08837892,0.0001603,53.2173,100.2179,74.1849,238.2601,0.00045525,6.964e-05,0.0,0 STARLINK-3790,1 52274U 22041P   22248.58334491  .00006964  00000-0  45525-3 0  9993,2 52274  53.2173 100.2179 0001603  74.1849 238.2601 15.08837892  1303,6917.887,95.438,540.861,538.643,0.0
